{"type": "FeatureCollection", "features": [ {"type": "Feature", "properties": {"norad_id": 32372, "name": "FENGYUN 1C DEB", "group": "fengyun-1c-debris", "lat": -79.28699309481506, "lon": 14.940996931781575, "alt_km": 1192.4423619899944, "timestamp": "2025-12-26T10:30:50.554237+00:00", "meta": {"OBJECT_NAME": "FENGYUN 1C DEB", "OBJECT_ID": "1999-025CZR", "EPOCH": "2025-12-11T11:21:44.110080", "MEAN_MOTION": 13.35367723, "ECCENTRICITY": 0.04586798, "INCLINATION": 97.3163, "RA_OF_ASC_NODE": 226.9338, "ARG_OF_PERICENTER": 43.4714, "MEAN_ANOMALY": 320.164, "EPHEMERIS_TYPE": 0, "CLASSIFICATION_TYPE": "U", "NORAD_CAT_ID": 32372, "ELEMENT_SET_NO": 999, "REV_AT_EPOCH": 60123, "BSTAR": 0.003543376, "MEAN_MOTION_DOT": 3.249e-05, "MEAN_MOTION_DDOT": 0}, "tle": {"line1": "1 32372U 99025CZR 25345.47342720  .00003249  00000+0  35434-2 0  9998", "line2": "2 32372  97.3163 226.9338 0458679  43.4714 320.1640 13.35367723601231"}}, "geometry": {"type": "Point", "coordinates": [14.940996931781575, -79.28699309481506]}}, {"type": "Feature", "properties": {"norad_id": 32409, "name": "FENGYUN 1C DEB", "group": "fengyun-1c-debris", "lat": 52.0621764087087, "lon": 154.3030320396505, "alt_km": 620.398169819985, "timestamp": "2025-12-26T10:30:50.554247+00:00", "meta": {"OBJECT_NAME": "FENGYUN 1C DEB", "OBJECT_ID": "1999-025CZV", "EPOCH": "2025-12-24T17:41:01.140864", "MEAN_MOTION": 14.76584409, "ECCENTRICITY": 0.00389222, "INCLINATION": 99.5678, "RA_OF_ASC_NODE": 164.7862, "ARG_OF_PERICENTER": 116.043, "MEAN_ANOMALY": 259.1652, "EPHEMERIS_TYPE": 0, "CLASSIFICATION_TYPE": "U", "NORAD_CAT_ID": 32409, "ELEMENT_SET_NO": 999, "REV_AT_EPOCH": 59016, "BSTAR": 0.0019717094, "MEAN_MOTION_DOT": 0.00013891, "MEAN_MOTION_DDOT": 0}, "tle": {"line1": "1 32409U 99025CZV 25358.73681876  .00013891  00000+0  19717-2 0  9990", "line2": "2 32409  99.5678 164.7862 0038922 116.0430 259.1652 14.76584409590166"}}, "geometry": {"type": "Point", "coordinates": [154.3030320396505, 52.0621764087087]}}, {"type": "Feature", "properties": {"norad_id": 32411, "name": "FENGYUN 1C DEB", "group": "fengyun-1c-debris", "lat": -30.61224009636797, "lon": -77.4273705218953, "alt_km": 777.2121507664906, "timestamp": "2025-12-26T10:30:50.554257+00:00", "meta": {"OBJECT_NAME": "FENGYUN 1C DEB", "OBJECT_ID": "1999-025CZX", "EPOCH": "2025-12-22T01:03:16.729632", "MEAN_MOTION": 14.09827877, "ECCENTRICITY": 0.01237302, "INCLINATION": 98.4304, "RA_OF_ASC_NODE": 273.4205, "ARG_OF_PERICENTER": 349.967, "MEAN_ANOMALY": 9.9034, "EPHEMERIS_TYPE": 0, "CLASSIFICATION_TYPE": "U", "NORAD_CAT_ID": 32411, "ELEMENT_SET_NO": 999, "REV_AT_EPOCH": 65945, "BSTAR": 0.00050914783, "MEAN_MOTION_DOT": 9.2e-06, "MEAN_MOTION_DDOT": 0}, "tle": {"line1": "1 32411U 99025CZX 25356.04394363  .00000920  00000+0  50915-3 0  9992", "line2": "2 32411  98.4304 273.4205 0123730 349.9670   9.9034 14.09827877659455"}}, "geometry": {"type": "Point", "coordinates": [-77.4273705218953, -30.61224009636797]}}, {"type": "Feature", "properties": {"norad_id": 32414, "name": "FENGYUN 1C DEB", "group": "fengyun-1c-debris", "lat": 45.502185248769464, "lon": -99.7965529441957, "alt_km": 858.8703648412684, "timestamp": "2025-12-26T10:30:50.554267+00:00", "meta": {"OBJECT_NAME": "FENGYUN 1C DEB", "OBJECT_ID": "1999-025DAA", "EPOCH": "2025-12-23T04:00:39.098880", "MEAN_MOTION": 14.18463584, "ECCENTRICITY": 0.00450064, "INCLINATION": 98.8569, "RA_OF_ASC_NODE": 67.8084, "ARG_OF_PERICENTER": 327.2126, "MEAN_ANOMALY": 32.6258, "EPHEMERIS_TYPE": 0, "CLASSIFICATION_TYPE": "U", "NORAD_CAT_ID": 32414, "ELEMENT_SET_NO": 999, "REV_AT_EPOCH": 93880, "BSTAR": 0.0013631783, "MEAN_MOTION_DOT": 2.8e-05, "MEAN_MOTION_DDOT": 0}, "tle": {"line1": "1 32414U 99025DAA 25357.16711920  .00002800  00000+0  13632-2 0  9994", "line2": "2 32414  98.8569  67.8084 0045006 327.2126  32.6258 14.18463584938800"}}, "geometry": {"type": "Point", "coordinates": [-99.7965529441957, 45.502185248769464]}}, {"type": "Feature", "properties": {"norad_id": 32419, "name": "FENGYUN 1C DEB", "group": "fengyun-1c-debris", "lat": -49.570406369122956, "lon": 104.70131048644784, "alt_km": 961.6873213160225, "timestamp": "2025-12-26T10:30:50.554277+00:00", "meta": {"OBJECT_NAME": "FENGYUN 1C DEB", "OBJECT_ID": "1999-025DAF", "EPOCH": "2025-12-11T15:09:56.013984", "MEAN_MOTION": 14.09908253, "ECCENTRICITY": 0.02839501, "INCLINATION": 97.9459, "RA_OF_ASC_NODE": 281.0334, "ARG_OF_PERICENTER": 32.1797, "MEAN_ANOMALY": 329.6358, "EPHEMERIS_TYPE": 0, "CLASSIFICATION_TYPE": "U", "NORAD_CAT_ID": 32419, "ELEMENT_SET_NO": 999, "REV_AT_EPOCH": 63555, "BSTAR": 0.0013854285, "MEAN_MOTION_DOT": 3.513e-05, "MEAN_MOTION_DDOT": 0}, "tle": {"line1": "1 32419U 99025DAF 25345.63189831  .00003513  00000+0  13854-2 0  9996", "line2": "2 32419  97.9459 281.0334 0283950  32.1797 329.6358 14.09908253635552"}}, "geometry": {"type": "Point", "coordinates": [104.70131048644784, -49.570406369122956]}}, {"type": "Feature", "properties": {"norad_id": 32422, "name": "FENGYUN 1C DEB", "group": "fengyun-1c-debris", "lat": 16.983821883356416, "lon": -47.60879483577361, "alt_km": 897.9482115862475, "timestamp": "2025-12-26T10:30:50.554287+00:00", "meta": {"OBJECT_NAME": "FENGYUN 1C DEB", "OBJECT_ID": "1999-025DAJ", "EPOCH": "2025-12-18T14:28:39.254304", "MEAN_MOTION": 13.98014994, "ECCENTRICITY": 0.02982939, "INCLINATION": 97.8414, "RA_OF_ASC_NODE": 123.2691, "ARG_OF_PERICENTER": 275.9311, "MEAN_ANOMALY": 80.7936, "EPHEMERIS_TYPE": 0, "CLASSIFICATION_TYPE": "U", "NORAD_CAT_ID": 32422, "ELEMENT_SET_NO": 999, "REV_AT_EPOCH": 63215, "BSTAR": 0.00020595213, "MEAN_MOTION_DOT": 3.88e-06, "MEAN_MOTION_DDOT": 0}, "tle": {"line1": "1 32422U 99025DAJ 25352.60323211  .00000388  00000+0  20595-3 0  9995", "line2": "2 32422  97.8414 123.2691 0298293 275.9311  80.7936 13.98014994632151"}}, "geometry": {"type": "Point", "coordinates": [-47.60879483577361, 16.983821883356416]}}, {"type": "Feature", "properties": {"norad_id": 32425, "name": "FENGYUN 1C DEB", "group": "fengyun-1c-debris", "lat": -48.72607461637239, "lon": 153.1209566454662, "alt_km": 739.6162643858916, "timestamp": "2025-12-26T10:30:50.554297+00:00", "meta": {"OBJECT_NAME": "FENGYUN 1C DEB", "OBJECT_ID": "1999-025DAM", "EPOCH": "2025-12-12T16:13:12.115488", "MEAN_MOTION": 14.16741504, "ECCENTRICITY": 0.02316015, "INCLINATION": 96.7012, "RA_OF_ASC_NODE": 135.0318, "ARG_OF_PERICENTER": 299.6477, "MEAN_ANOMALY": 58.1818, "EPHEMERIS_TYPE": 0, "CLASSIFICATION_TYPE": "U", "NORAD_CAT_ID": 32425, "ELEMENT_SET_NO": 999, "REV_AT_EPOCH": 69534, "BSTAR": 0.00075748036, "MEAN_MOTION_DOT": 1.938e-05, "MEAN_MOTION_DDOT": 0}, "tle": {"line1": "1 32425U 99025DAM 25346.67583467  .00001938  00000+0  75748-3 0  9991", "line2": "2 32425  96.7012 135.0318 0231601 299.6477  58.1818 14.16741504695342"}}, "geometry": {"type": "Point", "coordinates": [153.1209566454662, -48.72607461637239]}}, {"type": "Feature", "properties": {"norad_id": 32430, "name": "FENGYUN 1C DEB", "group": "fengyun-1c-debris", "lat": -54.88885497816873, "lon": 36.46841907066543, "alt_km": 906.0671799045094, "timestamp": "2025-12-26T10:30:50.554307+00:00", "meta": {"OBJECT_NAME": "FENGYUN 1C DEB", "OBJECT_ID": "1999-025DAS", "EPOCH": "2025-12-23T07:25:42.823488", "MEAN_MOTION": 13.70184988, "ECCENTRICITY": 0.03703317, "INCLINATION": 98.6958, "RA_OF_ASC_NODE": 21.0606, "ARG_OF_PERICENTER": 241.96, "MEAN_ANOMALY": 114.3635, "EPHEMERIS_TYPE": 0, "CLASSIFICATION_TYPE": "U", "NORAD_CAT_ID": 32430, "ELEMENT_SET_NO": 999, "REV_AT_EPOCH": 91348, "BSTAR": 0.002006586, "MEAN_MOTION_DOT": 2.83e-05, "MEAN_MOTION_DDOT": 0}, "tle": {"line1": "1 32430U 99025DAS 25357.30952342  .00002830  00000+0  20066-2 0  9995", "line2": "2 32430  98.6958  21.0606 0370331 241.9600 114.3635 13.70184988913480"}}, "geometry": {"type": "Point", "coordinates": [36.46841907066543, -54.88885497816873]}}, {"type": "Feature", "properties": {"norad_id": 32432, "name": "FENGYUN 1C DEB", "group": "fengyun-1c-debris", "lat": -54.102119926938876, "lon": -155.17777765032704, "alt_km": 615.8285222401892, "timestamp": "2025-12-26T10:30:50.554318+00:00", "meta": {"OBJECT_NAME": "FENGYUN 1C DEB", "OBJECT_ID": "1999-025DAU", "EPOCH": "2025-12-23T20:15:23.310720", "MEAN_MOTION": 14.52617697, "ECCENTRICITY": 0.0172618, "INCLINATION": 98.1696, "RA_OF_ASC_NODE": 33.7423, "ARG_OF_PERICENTER": 271.2687, "MEAN_ANOMALY": 86.874, "EPHEMERIS_TYPE": 0, "CLASSIFICATION_TYPE": "U", "NORAD_CAT_ID": 32432, "ELEMENT_SET_NO": 999, "REV_AT_EPOCH": 70856, "BSTAR": 0.0014396, "MEAN_MOTION_DOT": 7.12e-05, "MEAN_MOTION_DDOT": 0}, "tle": {"line1": "1 32432U 99025DAU 25357.84401980  .00007120  00000+0  14396-2 0  9999", "line2": "2 32432  98.1696  33.7423 0172618 271.2687  86.8740 14.52617697708562"}}, "geometry": {"type": "Point", "coordinates": [-155.17777765032704, -54.102119926938876]}}, {"type": "Feature", "properties": {"norad_id": 32440, "name": "FENGYUN 1C DEB", "group": "fengyun-1c-debris", "lat": 9.119864174070246, "lon": -146.64060663119992, "alt_km": 861.8382786612465, "timestamp": "2025-12-26T10:30:50.554328+00:00", "meta": {"OBJECT_NAME": "FENGYUN 1C DEB", "OBJECT_ID": "1999-025DBC", "EPOCH": "2025-12-24T19:39:57.716928", "MEAN_MOTION": 13.61347688, "ECCENTRICITY": 0.032345, "INCLINATION": 99.1528, "RA_OF_ASC_NODE": 213.3227, "ARG_OF_PERICENTER": 59.5036, "MEAN_ANOMALY": 303.7625, "EPHEMERIS_TYPE": 0, "CLASSIFICATION_TYPE": "U", "NORAD_CAT_ID": 32440, "ELEMENT_SET_NO": 999, "REV_AT_EPOCH": 60450, "BSTAR": 0.0035353506, "MEAN_MOTION_DOT": 3.782e-05, "MEAN_MOTION_DDOT": 0}, "tle": {"line1": "1 32440U 99025DBC 25358.81941802  .00003782  00000+0  35354-2 0  9995", "line2": "2 32440  99.1528 213.3227 0323450  59.5036 303.7625 13.61347688604502"}}, "geometry": {"type": "Point", "coordinates": [-146.64060663119992, 9.119864174070246]}}]}